{
  "type": "FeatureCollection",
  "features": [
    {
      "type": "Feature",
      "properties": {
        "norad_id": 41823,
        "name": "FENGYUN 1C DEB",
        "group": "fengyun-1c-debris",
        "lat": 30.931262805352144,
        "lon": -121.55701423362115,
        "alt_km": 798.4276737280625,
        "timestamp": "2025-12-15T20:48:54.173844+00:00",
        "meta_object_name": "FENGYUN 1C DEB",
        "meta_object_id": "1999-025EYA",
        "meta_epoch": "2025-12-14T17:07:27.727104",
        "meta_mean_motion": 14.2353469,
        "meta_eccentricity": 0.00547746,
        "meta_inclination": 98.7212,
        "meta_ra_of_asc_node": 52.0219,
        "meta_arg_of_pericenter": 222.57,
        "meta_mean_anomaly": 137.1227,
        "meta_ephemeris_type": 0,
        "meta_classification_type": "U",
        "meta_norad_cat_id": 41823,
        "meta_element_set_no": 999,
        "meta_rev_at_epoch": 47386,
        "meta_bstar": 0.0012971212,
        "meta_mean_motion_dot": 2.954e-05,
        "meta_mean_motion_ddot": 0,
        "tle_line1": "1 41823U 99025EYA 25348.71351536  .00002954  00000+0  12971-2 0  9997",
        "tle_line2": "2 41823  98.7212  52.0219 0054774 222.5700 137.1227 14.23534690473861"
      },
      "geometry": {
        "type": "Point",
        "coordinates": [
          -121.55701423362115,
          30.931262805352144
        ]
      }
    },
    {
      "type": "Feature",
      "properties": {
        "norad_id": 41824,
        "name": "FENGYUN 1C DEB",
        "group": "fengyun-1c-debris",
        "lat": 21.363017174883385,
        "lon": 50.4261706552447,
        "alt_km": 850.5142337180969,
        "timestamp": "2025-12-15T20:48:54.173855+00:00",
        "meta_object_name": "FENGYUN 1C DEB",
        "meta_object_id": "1999-025EYB",
        "meta_epoch": "2025-12-12T21:53:41.923392",
        "meta_mean_motion": 14.24166073,
        "meta_eccentricity": 0.00574087,
        "meta_inclination": 98.7318,
        "meta_ra_of_asc_node": 50.9372,
        "meta_arg_of_pericenter": 226.8452,
        "meta_mean_anomaly": 132.792,
        "meta_ephemeris_type": 0,
        "meta_classification_type": "U",
        "meta_norad_cat_id": 41824,
        "meta_element_set_no": 999,
        "meta_rev_at_epoch": 47362,
        "meta_bstar": 0.0024130782,
        "meta_mean_motion_dot": 5.613e-05,
        "meta_mean_motion_ddot": 0,
        "tle_line1": "1 41824U 99025EYB 25346.91229078  .00005613  00000+0  24131-2 0  9999",
        "tle_line2": "2 41824  98.7318  50.9372 0057408 226.8452 132.7920 14.24166073473626"
      },
      "geometry": {
        "type": "Point",
        "coordinates": [
          50.4261706552447,
          21.363017174883385
        ]
      }
    },
    {
      "type": "Feature",
      "properties": {
        "norad_id": 41825,
        "name": "FENGYUN 1C DEB",
        "group": "fengyun-1c-debris",
        "lat": -73.24578101617394,
        "lon": -151.85688168587478,
        "alt_km": 786.1276346753957,
        "timestamp": "2025-12-15T20:48:54.173865+00:00",
        "meta_object_name": "FENGYUN 1C DEB",
        "meta_object_id": "1999-025EYC",
        "meta_epoch": "2025-12-13T03:35:17.050560",
        "meta_mean_motion": 14.25096254,
        "meta_eccentricity": 0.0055989,
        "meta_inclination": 98.7431,
        "meta_ra_of_asc_node": 56.1785,
        "meta_arg_of_pericenter": 219.8519,
        "meta_mean_anomaly": 139.8543,
        "meta_ephemeris_type": 0,
        "meta_classification_type": "U",
        "meta_norad_cat_id": 41825,
        "meta_element_set_no": 999,
        "meta_rev_at_epoch": 47354,
        "meta_bstar": 0.0024270125,
        "meta_mean_motion_dot": 5.744e-05,
        "meta_mean_motion_ddot": 0,
        "tle_line1": "1 41825U 99025EYC 25347.14950290  .00005744  00000+0  24270-2 0  9992",
        "tle_line2": "2 41825  98.7431  56.1785 0055989 219.8519 139.8543 14.25096254473541"
      },
      "geometry": {
        "type": "Point",
        "coordinates": [
          -151.85688168587478,
          -73.24578101617394
        ]
      }
    },
    {
      "type": "Feature",
      "properties": {
        "norad_id": 41826,
        "name": "FENGYUN 1C DEB",
        "group": "fengyun-1c-debris",
        "lat": -31.510991672041065,
        "lon": -129.76773208217347,
        "alt_km": 778.4332708533475,
        "timestamp": "2025-12-15T20:48:54.173875+00:00",
        "meta_object_name": "FENGYUN 1C DEB",
        "meta_object_id": "1999-025EYD",
        "meta_epoch": "2025-12-14T15:08:55.143456",
        "meta_mean_motion": 14.23763701,
        "meta_eccentricity": 0.00559449,
        "meta_inclination": 98.7337,
        "meta_ra_of_asc_node": 54.4126,
        "meta_arg_of_pericenter": 218.18,
        "meta_mean_anomaly": 141.541,
        "meta_ephemeris_type": 0,
        "meta_classification_type": "U",
        "meta_norad_cat_id": 41826,
        "meta_element_set_no": 999,
        "meta_rev_at_epoch": 47387,
        "meta_bstar": 0.0014156702,
        "meta_mean_motion_dot": 3.245e-05,
        "meta_mean_motion_ddot": 0,
        "tle_line1": "1 41826U 99025EYD 25348.63119379  .00003245  00000+0  14157-2 0  9990",
        "tle_line2": "2 41826  98.7337  54.4126 0055944 218.1800 141.5410 14.23763701473878"
      },
      "geometry": {
        "type": "Point",
        "coordinates": [
          -129.76773208217347,
          -31.510991672041065
        ]
      }
    },
    {
      "type": "Feature",
      "properties": {
        "norad_id": 41827,
        "name": "FENGYUN 1C DEB",
        "group": "fengyun-1c-debris",
        "lat": 55.350385683541234,
        "lon": -108.070725046568,
        "alt_km": 795.4676976139026,
        "timestamp": "2025-12-15T20:48:54.173885+00:00",
        "meta_object_name": "FENGYUN 1C DEB",
        "meta_object_id": "1999-025EYE",
        "meta_epoch": "2025-12-14T15:35:26.632320",
        "meta_mean_motion": 14.25291686,
        "meta_eccentricity": 0.00584098,
        "meta_inclination": 98.7434,
        "meta_ra_of_asc_node": 57.8499,
        "meta_arg_of_pericenter": 208.2657,
        "meta_mean_anomaly": 151.5349,
        "meta_ephemeris_type": 0,
        "meta_classification_type": "U",
        "meta_norad_cat_id": 41827,
        "meta_element_set_no": 999,
        "meta_rev_at_epoch": 47358,
        "meta_bstar": 0.0015581312,
        "meta_mean_motion_dot": 3.69e-05,
        "meta_mean_motion_ddot": 0,
        "tle_line1": "1 41827U 99025EYE 25348.64961380  .00003690  00000+0  15581-2 0  9995",
        "tle_line2": "2 41827  98.7434  57.8499 0058409 208.2657 151.5349 14.25291686473586"
      },
      "geometry": {
        "type": "Point",
        "coordinates": [
          -108.070725046568,
          55.350385683541234
        ]
      }
    },
    {
      "type": "Feature",
      "properties": {
        "norad_id": 41828,
        "name": "FENGYUN 1C DEB",
        "group": "fengyun-1c-debris",
        "lat": -42.40219267947071,
        "lon": 126.35449963299241,
        "alt_km": 749.4877594152249,
        "timestamp": "2025-12-15T20:48:54.173895+00:00",
        "meta_object_name": "FENGYUN 1C DEB",
        "meta_object_id": "1999-025EYF",
        "meta_epoch": "2025-12-14T20:12:11.964960",
        "meta_mean_motion": 14.51796046,
        "meta_eccentricity": 0.0038074,
        "meta_inclination": 98.9219,
        "meta_ra_of_asc_node": 117.0184,
        "meta_arg_of_pericenter": 170.9283,
        "meta_mean_anomaly": 189.2606,
        "meta_ephemeris_type": 0,
        "meta_classification_type": "U",
        "meta_norad_cat_id": 41828,
        "meta_element_set_no": 999,
        "meta_rev_at_epoch": 47494,
        "meta_bstar": 0.0028279993,
        "meta_mean_motion_dot": 0.00011449,
        "meta_mean_motion_ddot": 0,
        "tle_line1": "1 41828U 99025EYF 25348.84180515  .00011449  00000+0  28280-2 0  9992",
        "tle_line2": "2 41828  98.9219 117.0184 0038074 170.9283 189.2606 14.51796046474940"
      },
      "geometry": {
        "type": "Point",
        "coordinates": [
          126.35449963299241,
          -42.40219267947071
        ]
      }
    },
    {
      "type": "Feature",
      "properties": {
        "norad_id": 41829,
        "name": "FENGYUN 1C DEB",
        "group": "fengyun-1c-debris",
        "lat": -81.24910719571709,
        "lon": 149.5324769174735,
        "alt_km": 794.7956495337576,
        "timestamp": "2025-12-15T20:48:54.173905+00:00",
        "meta_object_name": "FENGYUN 1C DEB",
        "meta_object_id": "1999-025EYG",
        "meta_epoch": "2025-12-14T11:32:17.556864",
        "meta_mean_motion": 14.25137579,
        "meta_eccentricity": 0.0056538,
        "meta_inclination": 98.7451,
        "meta_ra_of_asc_node": 57.6882,
        "meta_arg_of_pericenter": 214.0118,
        "meta_mean_anomaly": 145.7432,
        "meta_ephemeris_type": 0,
        "meta_classification_type": "U",
        "meta_norad_cat_id": 41829,
        "meta_element_set_no": 999,
        "meta_rev_at_epoch": 47332,
        "meta_bstar": 0.001679895,
        "meta_mean_motion_dot": 3.966e-05,
        "meta_mean_motion_ddot": 0,
        "tle_line1": "1 41829U 99025EYG 25348.48075876  .00003966  00000+0  16799-2 0  9993",
        "tle_line2": "2 41829  98.7451  57.6882 0056538 214.0118 145.7432 14.25137579473329"
      },
      "geometry": {
        "type": "Point",
        "coordinates": [
          149.5324769174735,
          -81.24910719571709
        ]
      }
    }
  ]
}